{
  "norad_id": 66433,
  "name": "STARLINK-35457",
  "history": [
    {
      "epoch": "2026-03-28T13:56:37.731264",
      "apogee_km": 483.78773362357333,
      "perigee_km": 482.01072524015126,
      "latitude_deg": 36.9090421025788,
      "longitude_deg": 159.07525696023367,
      "semi_major_axis_km": 6861.036229431862,
      "eccentricity": 0.0001295,
      "inclination_deg": 43.0008,
      "raan_deg": 167.3819,
      "arg_perigee_deg": 269.3943,
      "mean_anomaly_deg": 90.676,
      "mean_motion_rev_day": 15.27630051
    }
  ]
}